GLOBALSTAR M067 [+]     
1 32263U 07048A   23292.94989008 -.00000095  00000+0  15284-4 0  9998
2 32263  51.9758   9.7680 0001341 122.1755  49.3430 12.40632809734232
GLOBALSTAR M070 [+]     
1 32264U 07048B   23292.85295064 -.00000065  00000+0  21397-3 0  9999
2 32264  51.9739 175.5809 0000602 100.1426  23.7128 12.62280423737099
GLOBALSTAR M066 [+]     
1 32265U 07048C   23292.48408237 -.00000062  00000+0  23128-3 0  9998
2 32265  51.9694  38.7652 0000936  81.4525 357.8214 12.62273942739319
GLOBALSTAR M068 [-]     
1 32266U 07048D   23292.88114779 -.00000065  00000+0  21638-3 0  9995
2 32266  51.9908 350.3918 0000596 211.5631 321.2026 12.62768376740950
GLOBALSTAR M079 [+]     
1 37188U 10054A   23292.87870483 -.00000068  00000+0  19875-3 0  9997
2 37188  52.0029 185.4878 0000999  69.3097  53.8407 12.62269209599884
GLOBALSTAR M074 [+]     
1 37189U 10054B   23292.96007687 -.00000066  00000+0  21018-3 0  9996
2 37189  52.0005 184.6562 0000816  77.1018 296.3767 12.62271101600507
GLOBALSTAR M076 [+]     
1 37190U 10054C   23292.67067809 -.00000064  00000+0  22275-3 0  9992
2 37190  52.0018 185.6535 0001358  87.7349 289.7524 12.62262434600180
GLOBALSTAR M077 [+]     
1 37191U 10054D   23292.76020719 -.00000095  00000+0  46683-4 0  9996
2 37191  52.0052 142.0636 0000876  90.4395  32.9831 12.62267792600567
