<?xml version="1.0" encoding="UTF-8"?>
<ndm xmlns:xsi="http://www.w3.org/2001/XMLSchema-instance" xsi:noNamespaceSchemaLocation="https://sanaregistry.org/r/ndmxml_unqualified/ndmxml-2.0.0-master-2.0.xsd">
<omm id="CCSDS_OMM_VERS" version="2.0">
<header><CREATION_DATE/><ORIGINATOR/></header><body><segment><metadata><OBJECT_NAME>GLOBALSTAR M067 [+]</OBJECT_NAME><OBJECT_ID>2007-048A</OBJECT_ID><CENTER_NAME>EARTH</CENTER_NAME><REF_FRAME>TEME</REF_FRAME><TIME_SYSTEM>UTC</TIME_SYSTEM><MEAN_ELEMENT_THEORY>SGP4</MEAN_ELEMENT_THEORY></metadata><data><meanElements><EPOCH>2023-10-19T22:47:50.502912</EPOCH><MEAN_MOTION>12.40632809</MEAN_MOTION><ECCENTRICITY>.0001341</ECCENTRICITY><INCLINATION>51.9758</INCLINATION><RA_OF_ASC_NODE>9.7680</RA_OF_ASC_NODE><ARG_OF_PERICENTER>122.1755</ARG_OF_PERICENTER><MEAN_ANOMALY>49.3430</MEAN_ANOMALY></meanElements><tleParameters><EPHEMERIS_TYPE>0</EPHEMERIS_TYPE><CLASSIFICATION_TYPE>U</CLASSIFICATION_TYPE><NORAD_CAT_ID>32263</NORAD_CAT_ID><ELEMENT_SET_NO>999</ELEMENT_SET_NO><REV_AT_EPOCH>73423</REV_AT_EPOCH><BSTAR>.15284E-4</BSTAR><MEAN_MOTION_DOT>-.95E-6</MEAN_MOTION_DOT><MEAN_MOTION_DDOT>0</MEAN_MOTION_DDOT></tleParameters></data></segment></body></omm>
<omm id="CCSDS_OMM_VERS" version="2.0">
<header><CREATION_DATE/><ORIGINATOR/></header><body><segment><metadata><OBJECT_NAME>GLOBALSTAR M070 [+]</OBJECT_NAME><OBJECT_ID>2007-048B</OBJECT_ID><CENTER_NAME>EARTH</CENTER_NAME><REF_FRAME>TEME</REF_FRAME><TIME_SYSTEM>UTC</TIME_SYSTEM><MEAN_ELEMENT_THEORY>SGP4</MEAN_ELEMENT_THEORY></metadata><data><meanElements><EPOCH>2023-10-19T20:28:14.935296</EPOCH><MEAN_MOTION>12.62280423</MEAN_MOTION><ECCENTRICITY>.0000602</ECCENTRICITY><INCLINATION>51.9739</INCLINATION><RA_OF_ASC_NODE>175.5809</RA_OF_ASC_NODE><ARG_OF_PERICENTER>100.1426</ARG_OF_PERICENTER><MEAN_ANOMALY>23.7128</MEAN_ANOMALY></meanElements><tleParameters><EPHEMERIS_TYPE>0</EPHEMERIS_TYPE><CLASSIFICATION_TYPE>U</CLASSIFICATION_TYPE><NORAD_CAT_ID>32264</NORAD_CAT_ID><ELEMENT_SET_NO>999</ELEMENT_SET_NO><REV_AT_EPOCH>73709</REV_AT_EPOCH><BSTAR>.21397E-3</BSTAR><MEAN_MOTION_DOT>-.65E-6</MEAN_MOTION_DOT><MEAN_MOTION_DDOT>0</MEAN_MOTION_DDOT></tleParameters></data></segment></body></omm>
<omm id="CCSDS_OMM_VERS" version="2.0">
<header><CREATION_DATE/><ORIGINATOR/></header><body><segment><metadata><OBJECT_NAME>GLOBALSTAR M066 [+]</OBJECT_NAME><OBJECT_ID>2007-048C</OBJECT_ID><CENTER_NAME>EARTH</CENTER_NAME><REF_FRAME>TEME</REF_FRAME><TIME_SYSTEM>UTC</TIME_SYSTEM><MEAN_ELEMENT_THEORY>SGP4</MEAN_ELEMENT_THEORY></metadata><data><meanElements><EPOCH>2023-10-19T11:37:04.716768</EPOCH><MEAN_MOTION>12.62273942</MEAN_MOTION><ECCENTRICITY>.0000936</ECCENTRICITY><INCLINATION>51.9694</INCLINATION><RA_OF_ASC_NODE>38.7652</RA_OF_ASC_NODE><ARG_OF_PERICENTER>81.4525</ARG_OF_PERICENTER><MEAN_ANOMALY>357.8214</MEAN_ANOMALY></meanElements><tleParameters><EPHEMERIS_TYPE>0</EPHEMERIS_TYPE><CLASSIFICATION_TYPE>U</CLASSIFICATION_TYPE><NORAD_CAT_ID>32265</NORAD_CAT_ID><ELEMENT_SET_NO>999</ELEMENT_SET_NO><REV_AT_EPOCH>73931</REV_AT_EPOCH><BSTAR>.23128E-3</BSTAR><MEAN_MOTION_DOT>-.62E-6</MEAN_MOTION_DOT><MEAN_MOTION_DDOT>0</MEAN_MOTION_DDOT></tleParameters></data></segment></body></omm>
<omm id="CCSDS_OMM_VERS" version="2.0">
<header><CREATION_DATE/><ORIGINATOR/></header><body><segment><metadata><OBJECT_NAME>GLOBALSTAR M068 [-]</OBJECT_NAME><OBJECT_ID>2007-048D</OBJECT_ID><CENTER_NAME>EARTH</CENTER_NAME><REF_FRAME>TEME</REF_FRAME><TIME_SYSTEM>UTC</TIME_SYSTEM><MEAN_ELEMENT_THEORY>SGP4</MEAN_ELEMENT_THEORY></metadata><data><meanElements><EPOCH>2023-10-19T21:08:51.169056</EPOCH><MEAN_MOTION>12.62768376</MEAN_MOTION><ECCENTRICITY>.0000596</ECCENTRICITY><INCLINATION>51.9908</INCLINATION><RA_OF_ASC_NODE>350.3918</RA_OF_ASC_NODE><ARG_OF_PERICENTER>211.5631</ARG_OF_PERICENTER><MEAN_ANOMALY>321.2026</MEAN_ANOMALY></meanElements><tleParameters><EPHEMERIS_TYPE>0</EPHEMERIS_TYPE><CLASSIFICATION_TYPE>U</CLASSIFICATION_TYPE><NORAD_CAT_ID>32266</NORAD_CAT_ID><ELEMENT_SET_NO>999</ELEMENT_SET_NO><REV_AT_EPOCH>74095</REV_AT_EPOCH><BSTAR>.21638E-3</BSTAR><MEAN_MOTION_DOT>-.65E-6</MEAN_MOTION_DOT><MEAN_MOTION_DDOT>0</MEAN_MOTION_DDOT></tleParameters></data></segment></body></omm>
<omm id="CCSDS_OMM_VERS" version="2.0">
<header><CREATION_DATE/><ORIGINATOR/></header><body><segment><metadata><OBJECT_NAME>GLOBALSTAR M079 [+]</OBJECT_NAME><OBJECT_ID>2010-054A</OBJECT_ID><CENTER_NAME>EARTH</CENTER_NAME><REF_FRAME>TEME</REF_FRAME><TIME_SYSTEM>UTC</TIME_SYSTEM><MEAN_ELEMENT_THEORY>SGP4</MEAN_ELEMENT_THEORY></metadata><data><meanElements><EPOCH>2023-10-19T21:05:20.097312</EPOCH><MEAN_MOTION>12.62269209</MEAN_MOTION><ECCENTRICITY>.0000999</ECCENTRICITY><INCLINATION>52.0029</INCLINATION><RA_OF_ASC_NODE>185.4878</RA_OF_ASC_NODE><ARG_OF_PERICENTER>69.3097</ARG_OF_PERICENTER><MEAN_ANOMALY>53.8407</MEAN_ANOMALY></meanElements><tleParameters><EPHEMERIS_TYPE>0</EPHEMERIS_TYPE><CLASSIFICATION_TYPE>U</CLASSIFICATION_TYPE><NORAD_CAT_ID>37188</NORAD_CAT_ID><ELEMENT_SET_NO>999</ELEMENT_SET_NO><REV_AT_EPOCH>59988</REV_AT_EPOCH><BSTAR>.19875E-3</BSTAR><MEAN_MOTION_DOT>-.68E-6</MEAN_MOTION_DOT><MEAN_MOTION_DDOT>0</MEAN_MOTION_DDOT></tleParameters></data></segment></body></omm>
<omm id="CCSDS_OMM_VERS" version="2.0">
<header><CREATION_DATE/><ORIGINATOR/></header><body><segment><metadata><OBJECT_NAME>GLOBALSTAR M074 [+]</OBJECT_NAME><OBJECT_ID>2010-054B</OBJECT_ID><CENTER_NAME>EARTH</CENTER_NAME><REF_FRAME>TEME</REF_FRAME><TIME_SYSTEM>UTC</TIME_SYSTEM><MEAN_ELEMENT_THEORY>SGP4</MEAN_ELEMENT_THEORY></metadata><data><meanElements><EPOCH>2023-10-19T23:02:30.641568</EPOCH><MEAN_MOTION>12.62271101</MEAN_MOTION><ECCENTRICITY>.0000816</ECCENTRICITY><INCLINATION>52.0005</INCLINATION><RA_OF_ASC_NODE>184.6562</RA_OF_ASC_NODE><ARG_OF_PERICENTER>77.1018</ARG_OF_PERICENTER><MEAN_ANOMALY>296.3767</MEAN_ANOMALY></meanElements><tleParameters><EPHEMERIS_TYPE>0</EPHEMERIS_TYPE><CLASSIFICATION_TYPE>U</CLASSIFICATION_TYPE><NORAD_CAT_ID>37189</NORAD_CAT_ID><ELEMENT_SET_NO>999</ELEMENT_SET_NO><REV_AT_EPOCH>60050</REV_AT_EPOCH><BSTAR>.21018E-3</BSTAR><MEAN_MOTION_DOT>-.66E-6</MEAN_MOTION_DOT><MEAN_MOTION_DDOT>0</MEAN_MOTION_DDOT></tleParameters></data></segment></body></omm>
<omm id="CCSDS_OMM_VERS" version="2.0">
<header><CREATION_DATE/><ORIGINATOR/></header><body><segment><metadata><OBJECT_NAME>GLOBALSTAR M076 [+]</OBJECT_NAME><OBJECT_ID>2010-054C</OBJECT_ID><CENTER_NAME>EARTH</CENTER_NAME><REF_FRAME>TEME</REF_FRAME><TIME_SYSTEM>UTC</TIME_SYSTEM><MEAN_ELEMENT_THEORY>SGP4</MEAN_ELEMENT_THEORY></metadata><data><meanElements><EPOCH>2023-10-19T16:05:46.586976</EPOCH><MEAN_MOTION>12.62262434</MEAN_MOTION><ECCENTRICITY>.0001358</ECCENTRICITY><INCLINATION>52.0018</INCLINATION><RA_OF_ASC_NODE>185.6535</RA_OF_ASC_NODE><ARG_OF_PERICENTER>87.7349</ARG_OF_PERICENTER><MEAN_ANOMALY>289.7524</MEAN_ANOMALY></meanElements><tleParameters><EPHEMERIS_TYPE>0</EPHEMERIS_TYPE><CLASSIFICATION_TYPE>U</CLASSIFICATION_TYPE><NORAD_CAT_ID>37190</NORAD_CAT_ID><ELEMENT_SET_NO>999</ELEMENT_SET_NO><REV_AT_EPOCH>60018</REV_AT_EPOCH><BSTAR>.22275E-3</BSTAR><MEAN_MOTION_DOT>-.64E-6</MEAN_MOTION_DOT><MEAN_MOTION_DDOT>0</MEAN_MOTION_DDOT></tleParameters></data></segment></body></omm>
<omm id="CCSDS_OMM_VERS" version="2.0">
<header><CREATION_DATE/><ORIGINATOR/></header><body><segment><metadata><OBJECT_NAME>GLOBALSTAR M077 [+]</OBJECT_NAME><OBJECT_ID>2010-054D</OBJECT_ID><CENTER_NAME>EARTH</CENTER_NAME><REF_FRAME>TEME</REF_FRAME><TIME_SYSTEM>UTC</TIME_SYSTEM><MEAN_ELEMENT_THEORY>SGP4</MEAN_ELEMENT_THEORY></metadata><data><meanElements><EPOCH>2023-10-19T18:14:41.901216</EPOCH><MEAN_MOTION>12.62267792</MEAN_MOTION><ECCENTRICITY>.0000876</ECCENTRICITY><INCLINATION>52.0052</INCLINATION><RA_OF_ASC_NODE>142.0636</RA_OF_ASC_NODE><ARG_OF_PERICENTER>90.4395</ARG_OF_PERICENTER><MEAN_ANOMALY>32.9831</MEAN_ANOMALY></meanElements><tleParameters><EPHEMERIS_TYPE>0</EPHEMERIS_TYPE><CLASSIFICATION_TYPE>U</CLASSIFICATION_TYPE><NORAD_CAT_ID>37191</NORAD_CAT_ID><ELEMENT_SET_NO>999</ELEMENT_SET_NO><REV_AT_EPOCH>60056</REV_AT_EPOCH><BSTAR>.46683E-4</BSTAR><MEAN_MOTION_DOT>-.95E-6</MEAN_MOTION_DOT><MEAN_MOTION_DDOT>0</MEAN_MOTION_DDOT></tleParameters></data></segment></body></omm>

</ndm>
